[{"OBJECT_NAME":"SL-8 R/B","OBJECT_ID":"1988-053B","EPOCH":"2026-04-19T13:24:01.268064","MEAN_MOTION":14.38939227,"ECCENTRICITY":0.00208417,"INCLINATION":74.0491,"RA_OF_ASC_NODE":37.1294,"ARG_OF_PERICENTER":210.1696,"MEAN_ANOMALY":322.9673,"EPHEMERIS_TYPE":0,"CLASSIFICATION_TYPE":"U","NORAD_CAT_ID":19257,"ELEMENT_SET_NO":999,"REV_AT_EPOCH":98247,"BSTAR":4.5144607e-5,"MEAN_MOTION_DOT":1.13e-6,"MEAN_MOTION_DDOT":0},{"OBJECT_NAME":"COSMOS 1975","OBJECT_ID":"1988-093A","EPOCH":"2026-04-19T10:45:51.264864","MEAN_MOTION":15.28579211,"ECCENTRICITY":0.00124753,"INCLINATION":82.5182,"RA_OF_ASC_NODE":76.7415,"ARG_OF_PERICENTER":36.1076,"MEAN_ANOMALY":324.1003,"EPHEMERIS_TYPE":0,"CLASSIFICATION_TYPE":"U","NORAD_CAT_ID":19573,"ELEMENT_SET_NO":999,"REV_AT_EPOCH":2563,"BSTAR":0.00015842368,"MEAN_MOTION_DOT":4.446e-5,"MEAN_MOTION_DDOT":0},{"OBJECT_NAME":"SL-14 R/B","OBJECT_ID":"1988-093B","EPOCH":"2026-04-19T05:14:03.667200","MEAN_MOTION":14.85699379,"ECCENTRICITY":0.00190758,"INCLINATION":82.534,"RA_OF_ASC_NODE":4.0087,"ARG_OF_PERICENTER":263.7645,"MEAN_ANOMALY":214.0647,"EPHEMERIS_TYPE":0,"CLASSIFICATION_TYPE":"U","NORAD_CAT_ID":19574,"ELEMENT_SET_NO":999,"REV_AT_EPOCH":703,"BSTAR":2.9338006e-5,"MEAN_MOTION_DOT":2.79e-6,"MEAN_MOTION_DDOT":0},{"OBJECT_NAME":"SL-16 R/B","OBJECT_ID":"1988-102B","EPOCH":"2026-04-19T14:10:21.398880","MEAN_MOTION":14.16158873,"ECCENTRICITY":0.00161704,"INCLINATION":70.9995,"RA_OF_ASC_NODE":65.4333,"ARG_OF_PERICENTER":303.2376,"MEAN_ANOMALY":56.7197,"EPHEMERIS_TYPE":0,"CLASSIFICATION_TYPE":"U","NORAD_CAT_ID":19650,"ELEMENT_SET_NO":999,"REV_AT_EPOCH":93268,"BSTAR":-0.00010327568,"MEAN_MOTION_DOT":-2.53e-6,"MEAN_MOTION_DDOT":0},{"OBJECT_NAME":"INTERCOSMOS 24","OBJECT_ID":"1989-080A","EPOCH":"2026-04-19T07:32:54.341376","MEAN_MOTION":12.59598689,"ECCENTRICITY":0.11873736,"INCLINATION":82.6031,"RA_OF_ASC_NODE":77.9442,"ARG_OF_PERICENTER":198.4699,"MEAN_ANOMALY":156.9569,"EPHEMERIS_TYPE":0,"CLASSIFICATION_TYPE":"U","NORAD_CAT_ID":20261,"ELEMENT_SET_NO":999,"REV_AT_EPOCH":67191,"BSTAR":5.5264789e-5,"MEAN_MOTION_DOT":2.01e-6,"MEAN_MOTION_DDOT":0},{"OBJECT_NAME":"SL-14 R/B","OBJECT_ID":"1989-080C","EPOCH":"2026-04-19T12:33:30.411360","MEAN_MOTION":12.50526002,"ECCENTRICITY":0.12309748,"INCLINATION":82.592,"RA_OF_ASC_NODE":146.9827,"ARG_OF_PERICENTER":91.4642,"MEAN_ANOMALY":282.7444,"EPHEMERIS_TYPE":0,"CLASSIFICATION_TYPE":"U","NORAD_CAT_ID":20262,"ELEMENT_SET_NO":999,"REV_AT_EPOCH":66525,"BSTAR":6.1108099e-5,"MEAN_MOTION_DOT":2.36e-6,"MEAN_MOTION_DDOT":0},{"OBJECT_NAME":"DELTA 1 R/B","OBJECT_ID":"1989-089B","EPOCH":"2026-04-19T07:34:54.148800","MEAN_MOTION":14.50693893,"ECCENTRICITY":0.00689032,"INCLINATION":97.067,"RA_OF_ASC_NODE":310.2826,"ARG_OF_PERICENTER":355.4718,"MEAN_ANOMALY":4.5848,"EPHEMERIS_TYPE":0,"CLASSIFICATION_TYPE":"U","NORAD_CAT_ID":20323,"ELEMENT_SET_NO":999,"REV_AT_EPOCH":90162,"BSTAR":4.9786018e-5,"MEAN_MOTION_DOT":1.66e-6,"MEAN_MOTION_DDOT":0},{"OBJECT_NAME":"ARIANE 40 R/B","OBJECT_ID":"1990-005H","EPOCH":"2026-04-19T09:30:09.692928","MEAN_MOTION":14.39895894,"ECCENTRICITY":0.00113769,"INCLINATION":98.3008,"RA_OF_ASC_NODE":168.8278,"ARG_OF_PERICENTER":84.3438,"MEAN_ANOMALY":275.9048,"EPHEMERIS_TYPE":0,"CLASSIFICATION_TYPE":"U","NORAD_CAT_ID":20443,"ELEMENT_SET_NO":999,"REV_AT_EPOCH":89866,"BSTAR":5.9683075e-5,"MEAN_MOTION_DOT":1.46e-6,"MEAN_MOTION_DDOT":0},{"OBJECT_NAME":"DELTA 2 R/B(1)","OBJECT_ID":"1990-008B","EPOCH":"2026-04-18T17:26:01.074048","MEAN_MOTION":15.61185734,"ECCENTRICITY":0.00760172,"INCLINATION":35.6031,"RA_OF_ASC_NODE":271.0267,"ARG_OF_PERICENTER":275.0507,"MEAN_ANOMALY":84.1557,"EPHEMERIS_TYPE":0,"CLASSIFICATION_TYPE":"U","NORAD_CAT_ID":20453,"ELEMENT_SET_NO":999,"REV_AT_EPOCH":93238,"BSTAR":0.00060812547,"MEAN_MOTION_DOT":0.00061912,"MEAN_MOTION_DDOT":0},{"OBJECT_NAME":"COSMOS 2058","OBJECT_ID":"1990-010A","EPOCH":"2026-04-19T10:16:02.669952","MEAN_MOTION":15.11669394,"ECCENTRICITY":0.00091723,"INCLINATION":82.4711,"RA_OF_ASC_NODE":7.2918,"ARG_OF_PERICENTER":184.6337,"MEAN_ANOMALY":175.481,"EPHEMERIS_TYPE":0,"CLASSIFICATION_TYPE":"U","NORAD_CAT_ID":20465,"ELEMENT_SET_NO":999,"REV_AT_EPOCH":94839,"BSTAR":0.00011001499,"MEAN_MOTION_DOT":1.902e-5,"MEAN_MOTION_DDOT":0},{"OBJECT_NAME":"SL-14 R/B","OBJECT_ID":"1990-010B","EPOCH":"2026-04-19T06:56:33.925056","MEAN_MOTION":14.83607362,"ECCENTRICITY":0.0020291,"INCLINATION":82.5032,"RA_OF_ASC_NODE":229.2483,"ARG_OF_PERICENTER":162.0528,"MEAN_ANOMALY":198.1408,"EPHEMERIS_TYPE":0,"CLASSIFICATION_TYPE":"U","NORAD_CAT_ID":20466,"ELEMENT_SET_NO":999,"REV_AT_EPOCH":93450,"BSTAR":3.6345e-5,"MEAN_MOTION_DOT":3.25e-6,"MEAN_MOTION_DDOT":0},{"OBJECT_NAME":"SL-14 R/B","OBJECT_ID":"1990-018B","EPOCH":"2026-04-19T11:32:40.020864","MEAN_MOTION":14.82181312,"ECCENTRICITY":0.00151868,"INCLINATION":82.524,"RA_OF_ASC_NODE":184.9755,"ARG_OF_PERICENTER":321.7982,"MEAN_ANOMALY":38.2155,"EPHEMERIS_TYPE":0,"CLASSIFICATION_TYPE":"U","NORAD_CAT_ID":20511,"ELEMENT_SET_NO":999,"REV_AT_EPOCH":92862,"BSTAR":2.9810604e-5,"MEAN_MOTION_DOT":2.61e-6,"MEAN_MOTION_DDOT":0},{"OBJECT_NAME":"HST","OBJECT_ID":"1990-037B","EPOCH":"2026-04-19T07:46:21.472032","MEAN_MOTION":15.30081351,"ECCENTRICITY":0.00019649,"INCLINATION":28.4728,"RA_OF_ASC_NODE":122.6693,"ARG_OF_PERICENTER":203.9588,"MEAN_ANOMALY":156.0917,"EPHEMERIS_TYPE":0,"CLASSIFICATION_TYPE":"U","NORAD_CAT_ID":20580,"ELEMENT_SET_NO":999,"REV_AT_EPOCH":77954,"BSTAR":0.00015255875,"MEAN_MOTION_DOT":4.799e-5,"MEAN_MOTION_DDOT":0},{"OBJECT_NAME":"SL-16 R/B","OBJECT_ID":"1990-046B","EPOCH":"2026-04-19T13:22:03.925632","MEAN_MOTION":14.15015388,"ECCENTRICITY":0.00163339,"INCLINATION":70.9993,"RA_OF_ASC_NODE":212.0811,"ARG_OF_PERICENTER":245.9296,"MEAN_ANOMALY":114.0118,"EPHEMERIS_TYPE":0,"CLASSIFICATION_TYPE":"U","NORAD_CAT_ID":20625,"ELEMENT_SET_NO":999,"REV_AT_EPOCH":85417,"BSTAR":-6.5465701e-5,"MEAN_MOTION_DOT":-1.75e-6,"MEAN_MOTION_DDOT":0},{"OBJECT_NAME":"COSMOS 2084","OBJECT_ID":"1990-055A","EPOCH":"2026-04-19T13:31:33.208320","MEAN_MOTION":15.05880223,"ECCENTRICITY":0.00106132,"INCLINATION":62.7892,"RA_OF_ASC_NODE":196.1429,"ARG_OF_PERICENTER":206.2383,"MEAN_ANOMALY":153.8181,"EPHEMERIS_TYPE":0,"CLASSIFICATION_TYPE":"U","NORAD_CAT_ID":20663,"ELEMENT_SET_NO":999,"REV_AT_EPOCH":94247,"BSTAR":0.00011349103,"MEAN_MOTION_DOT":1.456e-5,"MEAN_MOTION_DDOT":0},{"OBJECT_NAME":"SL-6 R/B(2)","OBJECT_ID":"1990-055D","EPOCH":"2026-04-19T06:29:09.186144","MEAN_MOTION":15.0377092,"ECCENTRICITY":0.0031388,"INCLINATION":62.7803,"RA_OF_ASC_NODE":115.8287,"ARG_OF_PERICENTER":355.6636,"MEAN_ANOMALY":4.4186,"EPHEMERIS_TYPE":0,"CLASSIFICATION_TYPE":"U","NORAD_CAT_ID":20666,"ELEMENT_SET_NO":999,"REV_AT_EPOCH":94429,"BSTAR":0.00010575,"MEAN_MOTION_DOT":1.269e-5,"MEAN_MOTION_DDOT":0},{"OBJECT_NAME":"SL-8 R/B","OBJECT_ID":"1990-078B","EPOCH":"2026-04-19T13:11:20.881536","MEAN_MOTION":14.90163046,"ECCENTRICITY":0.03564873,"INCLINATION":82.906,"RA_OF_ASC_NODE":214.5302,"ARG_OF_PERICENTER":235.9533,"MEAN_ANOMALY":120.737,"EPHEMERIS_TYPE":0,"CLASSIFICATION_TYPE":"U","NORAD_CAT_ID":20775,"ELEMENT_SET_NO":999,"REV_AT_EPOCH":81538,"BSTAR":0.0004767276,"MEAN_MOTION_DOT":0.00016185,"MEAN_MOTION_DDOT":0}]
