SL-8 R/B                
1 19257U 88053B   26109.55834801  .00000113  00000+0  45145-4 0  9997
2 19257  74.0491  37.1294 0020841 210.1696 322.9673 14.38939227982477
COSMOS 1975             
1 19573U 88093A   26109.44851001  .00004446  00000+0  15842-3 0  9994
2 19573  82.5182  76.7415 0012475  36.1076 324.1003 15.28579211 25635
SL-14 R/B               
1 19574U 88093B   26109.21809800  .00000279  00000+0  29338-4 0  9996
2 19574  82.5340   4.0087 0019075 263.7645 214.0647 14.85699379  7039
SL-16 R/B               
1 19650U 88102B   26109.59052545 -.00000253  00000+0 -10328-3 0  9991
2 19650  70.9995  65.4333 0016170 303.2376  56.7197 14.16158873932682
INTERCOSMOS 24          
1 20261U 89080A   26109.31451784  .00000201  00000+0  55265-4 0  9996
2 20261  82.6031  77.9442 1187373 198.4699 156.9569 12.59598689671919
SL-14 R/B               
1 20262U 89080C   26109.52326865  .00000236  00000+0  61108-4 0  9992
2 20262  82.5920 146.9827 1230974  91.4642 282.7444 12.50526002665257
DELTA 1 R/B             
1 20323U 89089B   26109.31590450  .00000166  00000+0  49786-4 0  9999
2 20323  97.0670 310.2826 0068903 355.4718   4.5848 14.50693893901627
ARIANE 40 R/B           
1 20443U 90005H   26109.39594552  .00000146  00000+0  59683-4 0  9992
2 20443  98.3008 168.8278 0011376  84.3438 275.9048 14.39895894898663
DELTA 2 R/B(1)          
1 20453U 90008B   26108.72640132  .00061912  00000+0  60813-3 0  9992
2 20453  35.6031 271.0267 0076017 275.0507  84.1557 15.61185734932382
COSMOS 2058             
1 20465U 90010A   26109.42780868  .00001902  00000+0  11001-3 0  9995
2 20465  82.4711   7.2918 0009172 184.6337 175.4810 15.11669394948394
SL-14 R/B               
1 20466U 90010B   26109.28928154  .00000325  00000+0  36345-4 0  9999
2 20466  82.5032 229.2483 0020291 162.0528 198.1408 14.83607362934500
SL-14 R/B               
1 20511U 90018B   26109.48101876  .00000261  00000+0  29811-4 0  9993
2 20511  82.5240 184.9755 0015186 321.7982  38.2155 14.82181312928626
HST                     
1 20580U 90037B   26109.32385963  .00004799  00000+0  15256-3 0  9991
2 20580  28.4728 122.6693 0001964 203.9588 156.0917 15.30081351779540
SL-16 R/B               
1 20625U 90046B   26109.55698988 -.00000175  00000+0 -65466-4 0  9995
2 20625  70.9993 212.0811 0016333 245.9296 114.0118 14.15015388854179
COSMOS 2084             
1 20663U 90055A   26109.56357880  .00001456  00000+0  11349-3 0  9992
2 20663  62.7892 196.1429 0010613 206.2383 153.8181 15.05880223942477
SL-6 R/B(2)             
1 20666U 90055D   26109.27024521  .00001269  00000+0  10575-3 0  9998
2 20666  62.7803 115.8287 0031388 355.6636   4.4186 15.03770920944292
SL-8 R/B                
1 20775U 90078B   26109.54954724  .00016185  00000+0  47673-3 0  9993
2 20775  82.9060 214.5302 0356487 235.9533 120.7370 14.90163046815387
